NAVSTAR 77 (USA 289)    
1 43873U 18109A   24085.56566319  .00000052  00000+0  00000+0 0  9999
2 43873  55.2625 124.3314 0028406 195.1877 337.9695  2.00552346 38705
